{"type":"FeatureCollection","features":[{"type":"Feature","id":1100,"properties":{"code":"01100","name":"札幌市"},"geometry":{"type":"Point","coordinates":[141.3426248046875,43.01787792968751]}},{"type":"Feature","id":1202,"properties":{"code":"01202","name":"函館市"},"geometry":{"type":"Point","coordinates":[140.87303222656251,41.8591654296875]}},{"type":"Feature","id":1203,"properties":{"code":"01203","name":"小樽市"},"geometry":{"type":"Point","coordinates":[140.96010664062499,43.180299609375]}},{"type":"Feature","id":1204,"properties":{"code":"01204","name":"旭川市"},"geometry":{"type":"Point","coordinates":[142.31764560546878,43.71525458984375]}},{"type":"Feature","id":1205,"properties":{"code":"01205","name":"室蘭市"},"geometry":{"type":"Point","coordinates":[140.99931093749996,42.383485937500005]}},{"type":"Feature","id":1206,"properties":{"code":"01206","name":"釧路市"},"geometry":{"type":"Point","coordinates":[144.13837470703123,43.18110947265625]}},{"type":"Feature","id":1207,"properties":{"code":"01207","name":"帯広市"},"geometry":{"type":"Point","coordinates":[143.14547285156252,42.7937494140625]}},{"type":"Feature","id":1208,"properties":{"code":"01208","name":"北見市"},"geometry":{"type":"Point","coordinates":[143.87600419921878,43.86424365234376]}},{"type":"Feature","id":1209,"properties":{"code":"01209","name":"夕張市"},"geometry":{"type":"Point","coordinates":[142.1431732421875,43.0632521484375]}},{"type":"Feature","id":1210,"properties":{"code":"01210","name":"岩見沢市"},"geometry":{"type":"Point","coordinates":[141.7410376953125,43.16710253906249]}},{"type":"Feature","id":1213,"properties":{"code":"01213","name":"苫小牧市"},"geometry":{"type":"Point","coordinates":[141.472515625,42.675065625]}},{"type":"Feature","id":1215,"properties":{"code":"01215","name":"美唄市"},"geometry":{"type":"Point","coordinates":[141.83567109375,43.32529609374999]}},{"type":"Feature","id":1216,"properties":{"code":"01216","name":"芦別市"},"geometry":{"type":"Point","coordinates":[142.17999863281244,43.38841035156251]}},{"type":"Feature","id":1217,"properties":{"code":"01217","name":"江別市"},"geometry":{"type":"Point","coordinates":[141.53309921875,43.10969296874999]}},{"type":"Feature","id":1222,"properties":{"code":"01222","name":"三笠市"},"geometry":{"type":"Point","coordinates":[142.0168517578125,43.2445248046875]}},{"type":"Feature","id":1224,"properties":{"code":"01224","name":"千歳市"},"geometry":{"type":"Point","coordinates":[141.33167500000002,42.747075]}},{"type":"Feature","id":1230,"properties":{"code":"01230","name":"登別市"},"geometry":{"type":"Point","coordinates":[141.07520175781247,42.4632572265625]}},{"type":"Feature","id":1231,"properties":{"code":"01231","name":"恵庭市"},"geometry":{"type":"Point","coordinates":[141.54612343750003,42.8752828125]}},{"type":"Feature","id":1234,"properties":{"code":"01234","name":"北広島市"},"geometry":{"type":"Point","coordinates":[141.52407187499998,42.968621875]}},{"type":"Feature","id":1235,"properties":{"code":"01235","name":"石狩市"},"geometry":{"type":"Point","coordinates":[141.45230332031244,43.62197714843749]}}]}